IRIDIUM 126             
1 42809U 17039G   25274.23767018  .00000045  00000+0  90280-5 0  9999
2 42809  86.3913 101.9111 0002219  93.7629 266.3821 14.34218191432831
IRIDIUM 124             
1 42810U 17039H   25273.89370923  .00000983  00000+0  28621-3 0  9996
2 42810  86.4508  38.7424 0002145  89.0535 271.0912 14.43287146437712
IRIDIUM 128             
1 42811U 17039J   25274.01908476  .00000560  00000+0  19301-3 0  9998
2 42811  86.3968 133.5245 0002177  74.1979 285.9457 14.34222501432839
IRIDIUM 121             
1 42812U 17039K   25273.76832517 -.00000311  00000+0 -11811-3 0  9996
2 42812  86.3918 102.1335 0001928  84.8298 275.3118 14.34214503432641
IRIDIUM 133             
1 42955U 17061A   25273.91127690  .00000436  00000+0  14853-3 0  9990
2 42955  86.3972 133.6810 0002114  84.1187 276.0250 14.34216447417618
IRIDIUM 100             
1 42956U 17061B   25274.04447519  .00000173  00000+0  54876-4 0  9999
2 42956  86.3967 133.5500 0002265  85.1093 275.0361 14.34218448417639
IRIDIUM 122             
1 42957U 17061C   25274.01275969  .00000211  00000+0  68124-4 0  9999
2 42957  86.3968 133.5624 0002261  84.4549 275.6905 14.34217601417632
IRIDIUM 129             
1 42958U 17061D   25274.10789525  .00000490  00000+0  16797-3 0  9995
2 42958  86.3972 133.5872 0001977  98.2980 261.8440 14.34220695417669
